[{"OBJECT_NAME":"HAWK-11C","OBJECT_ID":"2024-247E","EPOCH":"2026-03-09T12:17:35.407968","MEAN_MOTION":15.2884802,"ECCENTRICITY":0.00059001,"INCLINATION":45.0045,"RA_OF_ASC_NODE":114.8762,"ARG_OF_PERICENTER":329.704,"MEAN_ANOMALY":30.3502,"EPHEMERIS_TYPE":0,"CLASSIFICATION_TYPE":"U","NORAD_CAT_ID":62381,"ELEMENT_SET_NO":999,"REV_AT_EPOCH":6774,"BSTAR":0.00033290115,"MEAN_MOTION_DOT":9.223e-5,"MEAN_MOTION_DDOT":0},{"OBJECT_NAME":"STARLINK-35965","OBJECT_ID":"2025-271Q","EPOCH":"2026-03-09T12:23:46.654944","MEAN_MOTION":15.30231015,"ECCENTRICITY":0.00015725,"INCLINATION":53.1595,"RA_OF_ASC_NODE":140.4931,"ARG_OF_PERICENTER":73.2754,"MEAN_ANOMALY":286.8419,"EPHEMERIS_TYPE":0,"CLASSIFICATION_TYPE":"U","NORAD_CAT_ID":66631,"ELEMENT_SET_NO":999,"REV_AT_EPOCH":1754,"BSTAR":0.00087008254,"MEAN_MOTION_DOT":0.00025523,"MEAN_MOTION_DDOT":0}]
